LEMUR-2-JENNYBARNA      
1 42753U 17019C   17234.65681121  .00004266  00000-0  16797-3 0  9997
2 42753  51.6398  81.7989 0010705 216.5741 143.4509 15.27696841 11407
LEMUR-2-ROBMOORE        
1 42754U 17019D   17234.92451413  .00002585  00000-0  10746-3 0  9997
2 42754  51.6393  80.5837 0010654 220.2175 139.8016 15.27521793 11470
LEMUR-2-SPIROVISION     
1 42755U 17019E   17234.66105298  .00003704  00000-0  14803-3 0  9998
2 42755  51.6394  81.8243 0010685 219.0489 140.9719 15.27594756 11321
UCLSAT                  
1 42765U 17036A   17234.87291399  .00001806  00000-0  84867-4 0  9998
2 42765  97.4445 293.9276 0013281  47.5026 312.7329 15.20814258  9941
LITUANICASAT-2          
1 42768U 17036D   17234.91774334  .00002955  00000-0  14099-3 0  9996
2 42768  97.4446 293.8680 0017135  35.6723 324.5653 15.19739385  9235
INFLATESAIL             
1 42770U 17036F   17235.20153185  .00721954  00000-0  14156-1 0  9996
2 42770  97.4448 295.0220 0003658 208.0728 152.0323 15.45015536  9265
LEMUR-2-SHAINAJOHL      
1 42771U 17036G   17234.91116325  .00002308  00000-0  11039-3 0  9993
2 42771  97.4445 293.8778 0016228  35.4216 324.8093 15.19885078  9178
LEMUR-2-XUENITERENCE    
1 42772U 17036H   17235.43564453  .00002134  00000-0  10216-3 0  9994
2 42772  97.4455 294.4003 0016033  33.0879 327.1322 15.19937299  9254
LEMUR-2-LUCYBRYCE       
1 42773U 17036J   17235.43350233  .00003040  00000-0  14387-3 0  9994
2 42773  97.4445 294.4004 0016020  31.5649 328.6489 15.20009146  9252
LEMUR-2-KUNGFOO         
1 42774U 17036K   17235.43293962  .00004412  00000-0  20738-3 0  9991
2 42774  97.4462 294.4051 0016368  31.4916 328.7251 15.19999951  9242
AALTO-1                 
1 42775U 17036L   17235.36392266  .00001295  00000-0  63101-4 0  9999
2 42775  97.4433 294.3415 0015410  31.3713 328.8389 15.20031655  9248
URSA MAIOR              
1 42776U 17036M   17235.29658856  .00001307  00000-0  63621-4 0  9993
2 42776  97.4449 294.2827 0015132  32.8141 327.4031 15.20070605  9230
COMPASS 2               
1 42777U 17036N   17235.41709547  .00002795  00000-0  13116-3 0  9997
2 42777  97.4455 294.4335 0014230  36.7211 323.5022 15.20399835  9240
LEMUR-2-LYNSEY-SYMO     
1 42779U 17036Q   17234.88269255  .00002719  00000-0  12694-3 0  9992
2 42779  97.4450 293.9188 0013974  45.5741 314.6635 15.20608020  9157
LEMUR-2-LISASAURUS      
1 42780U 17036R   17235.21089333  .00002279  00000-0  10688-3 0  9991
2 42780  97.4445 294.2425 0013880  44.3098 315.9245 15.20609743  9210
LEMUR-2-SAM-AMELIA      
1 42781U 17036S   17235.20973569  .00002865  00000-0  13338-3 0  9990
2 42781  97.4445 294.2433 0013748  44.8174 315.4169 15.20662897  9201
LEMUR-2-MCPEAKE         
1 42782U 17036T   17235.14284684  .00002582  00000-0  12043-3 0  9995
2 42782  97.4447 294.1814 0013649  44.9222 315.3115 15.20685255  9192
DIAMOND RED             
1 42783U 17036U   17235.40579497  .00001950  00000-0  91826-4 0  9999
2 42783  97.4456 294.4398 0013922  44.7336 315.5071 15.20643128  9243
PEGASUS                 
1 42784U 17036V   17235.20712540  .00001757  00000-0  82984-4 0  9996
2 42784  97.4446 294.2475 0013777  46.0457 314.1912 15.20679022  9212
DIAMOND GREEN           
1 42785U 17036W   17235.40445978  .00001784  00000-0  84224-4 0  9996
2 42785  97.4449 294.4423 0013597  45.8921 314.3495 15.20664540  9233
DIAMOND BLUE            
1 42786U 17036X   17235.40271938  .00001151  00000-0  55436-4 0  9991
2 42786  97.4434 294.4434 0013642  45.3206 314.9159 15.20692761  9231
NUDTSAT                 
1 42787U 17036Y   17235.46565646  .00002599  00000-0  12070-3 0  9993
2 42787  97.4445 294.5135 0013388  46.0895 314.1444 15.20833905  9092
SUCHAI                  
1 42788U 17036Z   17235.40076075  .00002163  00000-0  10109-3 0  9999
2 42788  97.4451 294.4465 0013624  45.3208 314.9126 15.20788351  9312
SKCUBE                  
1 42789U 17036AA  17234.93855887  .00001816  00000-0  85342-4 0  9999
2 42789  97.4445 293.9933 0013269  47.5413 312.6942 15.20820983  9169
VZLUSAT-1               
1 42790U 17036AB  17234.86973837  .00002117  00000-0  98703-4 0  9999
2 42790  97.4443 293.9303 0013003  48.3514 311.8833 15.20910523  9156
ROBUSTA-1B              
1 42792U 17036AD  17235.46001273  .00001924  00000-0  89880-4 0  9995
2 42792  97.4451 294.5180 0012985  47.0095 313.2210 15.20947988  9256
CICERO 6                
1 42793U 17036AE  17235.38642958  .00001317  00000-0  62233-4 0  9997
2 42793  97.4430 294.4597 0011924  47.9184 312.3046 15.21112881  9316
D-SAT                   
1 42794U 17036AF  17235.44932159  .00001107  00000-0  52716-4 0  9992
2 42794  97.4437 294.5291 0010974  45.4486 314.7625 15.21175835  9247
TOKI                    
1 42820U 98067MU  17234.93830387  .00015740  00000-0  22948-3 0  9999
2 42820  51.6394  65.1611 0003747 134.5829 225.5469 15.55872266  7242
GHANASAT-1              
1 42821U 98067MV  17234.93963956  .00015085  00000-0  22072-3 0  9999
2 42821  51.6393  65.1701 0003799 136.0181 224.1113 15.55812425  7227
MAZAALAI (NUMSAT-1)     
1 42822U 98067MW  17234.94032489  .00015562  00000-0  22758-3 0  9990
2 42822  51.6394  65.1748 0003797 138.7535 221.3744 15.55798591  7248
BRAC ONNESHA            
1 42823U 98067MX  17234.94163268  .00015516  00000-0  22710-3 0  9998
2 42823  51.6396  65.1848 0007310 154.0308 206.1052 15.55760645  7248
NIGERIAEDUSAT-1         
1 42824U 98067MY  17234.94326871  .00015387  00000-0  22578-3 0  9998
2 42824  51.6397  65.1957 0007151 155.1050 205.0287 15.55701023  7210
LEMUR-2-GREENBERG       
1 42837U 17042N   17234.93050321  .00000382  00000-0  43995-4 0  9995
2 42837  97.6107 143.2339 0014901 107.3003 252.9847 14.90997097  5906
LEMUR-2-ANDIS           
1 42838U 17042P   17234.92997608  .00000579  00000-0  63888-4 0  9994
2 42838  97.6106 143.2341 0014968 107.6531 252.6324 14.91023819  5901
LEMUR-2-MONSON          
1 42839U 17042Q   17234.92717277  .00000347  00000-0  40335-4 0  9992
2 42839  97.6105 143.2375 0014670 106.8482 253.4347 14.91120101  5900
LEMUR-2-FURIAUS         
1 42840U 17042R   17234.92645392  .00000572  00000-0  62959-4 0  9998
2 42840  97.6104 143.2382 0014739 106.8833 253.4004 14.91153220  5891
LEMUR-2-PETERG          
1 42841U 17042S   17235.19125621  .00000377  00000-0  43177-4 0  9991
2 42841  97.6105 143.5020 0014471 104.7933 255.4891 14.91284838  5948
LEMUR-2-DEMBITZ         
1 42842U 17042T   17235.19068673  .00000446  00000-0  50077-4 0  9999
2 42842  97.6104 143.5021 0014453 105.2326 255.0492 14.91306031  5944
LEMUR-2-ZACHARY         
1 42845U 17042W   17234.91626113  .00000460  00000-0  51259-4 0  9999
2 42845  97.6054 143.2225 0014706 110.9339 249.3455 14.91533759  5890
FLOCK 2K-03             
1 42850U 17042AB  17234.71354524  .00009756  00000-0  31200-3 0  9997
2 42850  96.9993 141.5903 0014373 109.8979 250.3814 15.32515148  5845
FLOCK 2K-04             
1 42851U 17042AC  17234.71449635  .00009894  00000-0  31707-3 0  9991
2 42851  96.9995 141.5905 0013978 110.2042 250.0706 15.32448553  5849
FLOCK 2K-01             
1 42852U 17042AD  17235.23611789  .00009003  00000-0  28829-3 0  9994
2 42852  96.9993 142.0852 0014012 108.2014 252.0756 15.32498297  5927
FLOCK 2K-02             
1 42853U 17042AE  17234.90923915  .00010297  00000-0  32906-3 0  9993
2 42853  96.9997 141.7783 0013917 108.6737 251.6018 15.32530733  5872
FLOCK 2K-47             
1 42854U 17042AF  17234.71244136  .00010368  00000-0  33078-3 0  9994
2 42854  96.9993 141.5916 0013872 108.8772 251.3977 15.32580156  5848
FLOCK 2K-48             
1 42855U 17042AG  17235.23470692  .00009216  00000-0  29450-3 0  9990
2 42855  96.9994 142.0874 0013871 107.2338 253.0425 15.32560297  5929
FLOCK 2K-45             
1 42856U 17042AH  17235.16836614  .00005535  00000-0  17763-3 0  9997
2 42856  96.9991 142.0261 0013928 106.7227 253.5546 15.32598797  5915
FLOCK 2K-24             
1 42857U 17042AJ  17234.97196945  .00008978  00000-0  28654-3 0  9997
2 42857  96.9992 141.8403 0013804 107.1568 253.1187 15.32609633  5883
FLOCK 2K-46             
1 42858U 17042AK  17234.90649222  .00006155  00000-0  19718-3 0  9998
2 42858  96.9994 141.7812 0013972 107.1904 253.0870 15.32613989  5875
FLOCK 2K-23             
1 42859U 17042AL  17235.23275987  .00009265  00000-0  29512-3 0  9997
2 42859  96.9994 142.0897 0013947 106.2860 253.9919 15.32661249  5927
FLOCK 2K-21             
1 42860U 17042AM  17235.16655008  .00008946  00000-0  28484-3 0  9999
2 42860  96.9994 142.0291 0013932 105.7447 254.5333 15.32685149  5917
FLOCK 2K-22             
1 42861U 17042AN  17234.90484041  .00007620  00000-0  24278-3 0  9993
2 42861  96.9996 141.7832 0013974 106.4805 253.7975 15.32714075  5878
FLOCK 2K-07             
1 42862U 17042AP  17234.70808514  .00010109  00000-0  32094-3 0  9998
2 42862  96.9995 141.5985 0014028 106.7189 253.5595 15.32743373  5851
FLOCK 2K-08             
1 42863U 17042AQ  17234.70727872  .00008868  00000-0  28151-3 0  9994
2 42863  96.9992 141.5980 0014141 106.5966 253.6831 15.32780169  5848
FLOCK 2K-05             
1 42864U 17042AR  17235.16377659  .00007646  00000-0  24281-3 0  9993
2 42864  96.9993 142.0322 0014161 105.6212 254.6596 15.32812187  5915
FLOCK 2K-40             
1 42865U 17042AS  17235.16329918  .00006407  00000-0  20370-3 0  9998
2 42865  96.9995 142.0331 0014142 105.3458 254.9349 15.32838074  5918
FLOCK 2K-39             
1 42866U 17042AT  17235.16326577  .00006671  00000-0  21201-3 0  9994
2 42866  96.9992 142.0328 0014192 105.3431 254.9382 15.32835684  5919
FLOCK 2K-37             
1 42867U 17042AU  17235.22839648  .00009496  00000-0  30050-3 0  9990
2 42867  96.9992 142.0948 0014123 105.2211 255.0595 15.32861188  5924
FLOCK 2K-38             
1 42868U 17042AV  17235.22767118  .00009116  00000-0  28844-3 0  9990
2 42868  96.9993 142.0958 0014203 105.2048 255.0766 15.32877810  5923
